NORAD_CAT_ID,OBJECT_NAME,OBJECT_TYPE,EPOCH,MEAN_MOTION,ECCENTRICITY,INCLINATION,RA_OF_ASC_NODE,ARG_OF_PERICENTER,MEAN_ANOMALY,BSTAR,MEAN_MOTION_DOT,MEAN_MOTION_DDOT,TLE_LINE0,TLE_LINE1,TLE_LINE2,SEMIMAJOR_AXIS,PERIOD,APOGEE,PERIGEE,DECAYED
54010.0,STARLINK-5127,PAYLOAD,2023-12-03 02:47:25,15.0879112,0.0002087,53.2181,318.8188,80.9915,279.1313,-0.00078133,-0.00012685,0.0,0 STARLINK-5127,1 54010U 22125AY  23337.11626635 -.00012685  00000-0 -78133-3 0  9999,2 54010  53.2181 318.8188 0002087  80.9915 279.1313 15.08791120 64727,6918.03,95.441,541.339,538.451,0.0
54010.0,STARLINK-5127,PAYLOAD,2023-12-03 05:58:11,15.0879366,0.0002162,53.2176,318.2218,82.0099,278.1138,-0.00069108,-0.00011256,0.0,0 STARLINK-5127,1 54010U 22125AY  23337.24874867 -.00011256  00000-0 -69108-3 0  9990,2 54010  53.2176 318.2218 0002162  82.0099 278.1138 15.08793660 64690,6918.022,95.44,541.383,538.391,0.0
54010.0,STARLINK-5127,PAYLOAD,2023-12-03 10:44:21,15.08793773,0.0002211,53.2179,317.3255,90.2831,269.8414,-0.00063168,-0.00010315,0.0,0 STARLINK-5127,1 54010U 22125AY  23337.44747253 -.00010315  00000-0 -63168-3 0  9995,2 54010  53.2179 317.3255 0002211  90.2831 269.8414 15.08793773 64772,6918.022,95.44,541.416,538.357,0.0
54010.0,STARLINK-5127,PAYLOAD,2023-12-04 04:13:33,15.08851414,0.0002693,53.2186,314.0619,106.2053,253.9236,5.0957e-05,5.23e-06,0.0,0 STARLINK-5127,1 54010U 22125AY  23338.17608642  .00000523  00000-0  50957-4 0  9995,2 54010  53.2186 314.0619 0002693 106.2053 253.9236 15.08851414 64881,6917.846,95.437,541.573,537.848,0.0
54010.0,STARLINK-5127,PAYLOAD,2023-12-04 08:59:43,15.0885085,0.0002588,53.2187,313.1654,90.4459,269.6829,0.00013476,1.858e-05,0.0,0 STARLINK-5127,1 54010U 22125AY  23338.37480777  .00001858  00000-0  13476-3 0  9990,2 54010  53.2187 313.1654 0002588  90.4459 269.6829 15.08850850 64861,6917.847,95.437,541.503,537.922,0.0
54010.0,STARLINK-5127,PAYLOAD,2023-12-05 04:04:22,15.08842673,0.0002726,53.2183,309.5972,79.0808,281.0491,0.00071647,0.00011134,0.0,0 STARLINK-5127,1 54010U 22125AY  23339.16970004  .00011134  00000-0  71647-3 0  9997,2 54010  53.2183 309.5972 0002726  79.0808 281.0491 15.08842673 65031,6917.872,95.437,541.623,537.851,0.0
54010.0,STARLINK-5127,PAYLOAD,2023-12-05 07:15:07,15.08850981,0.0002795,53.2191,309.002,79.735,280.3957,0.00075161,0.00011698,0.0,0 STARLINK-5127,1 54010U 22125AY  23339.30217543  .00011698  00000-0  75161-3 0  9995,2 54010  53.2191 309.0020 0002795  79.7350 280.3957 15.08850981 65001,6917.847,95.437,541.645,537.778,0.0
54010.0,STARLINK-5127,PAYLOAD,2023-12-06 03:55:08,15.08854571,0.0002802,53.218,305.1369,83.4057,276.7254,-5.0172e-05,-1.087e-05,0.0,0 STARLINK-5127,1 54010U 22125AY  23340.16328780 -.00001087  00000-0 -50172-4 0  9996,2 54010  53.2180 305.1369 0002802  83.4057 276.7254 15.08854571 65184,6917.836,95.437,541.639,537.762,0.0
54010.0,STARLINK-5127,PAYLOAD,2023-12-06 05:30:31,15.08855319,0.0002854,53.2181,304.8394,83.1702,276.9615,-2.9513e-05,-7.59e-06,0.0,0 STARLINK-5127,1 54010U 22125AY  23340.22952691 -.00000759  00000-0 -29513-4 0  9997,2 54010  53.2181 304.8394 0002854  83.1702 276.9615 15.08855319 65140,6917.834,95.437,541.673,537.724,0.0
54010.0,STARLINK-5127,PAYLOAD,2023-12-06 21:24:22,15.08844763,0.0003329,53.2185,301.8756,74.4551,285.6808,-5.7025e-05,-1.197e-05,0.0,0 STARLINK-5127,1 54010U 22125AY  23340.89193051 -.00001197  00000-0 -57025-4 0  9993,2 54010  53.2185 301.8756 0003329  74.4551 285.6808 15.08844763 65249,6917.866,95.437,542.034,537.428,0.0
54010.0,STARLINK-5127,PAYLOAD,2023-12-07 03:45:55,15.08846802,0.0002586,53.2183,300.6773,97.4794,262.6492,-0.00012616,-2.296e-05,0.0,0 STARLINK-5127,1 54010U 22125AY  23341.15689298 -.00002296  00000-0 -12616-3 0  9993,2 54010  53.2183 300.6773 0002586  97.4794 262.6492 15.08846802 65331,6917.86,95.437,541.514,537.936,0.0
54010.0,STARLINK-5127,PAYLOAD,2023-12-08 06:47:28,15.08843001,0.0002628,53.2179,295.6211,108.4492,251.6786,7.7621e-05,9.47e-06,0.0,0 STARLINK-5127,1 54010U 22125AY  23342.28296972  .00000947  00000-0  77621-4 0  9998,2 54010  53.2179 295.6211 0002628 108.4492 251.6786 15.08843001 65502,6917.871,95.437,541.554,537.918,0.0
54010.0,STARLINK-5127,PAYLOAD,2023-12-09 06:38:15,15.0884439,0.0002539,53.2175,291.1606,105.4744,254.6529,0.00016594,2.354e-05,0.0,0 STARLINK-5127,1 54010U 22125AY  23343.27656756  .00002354  00000-0  16594-3 0  9993,2 54010  53.2175 291.1606 0002539 105.4744 254.6529 15.08844390 65606,6917.867,95.437,541.488,537.976,0.0
54010.0,STARLINK-5127,PAYLOAD,2023-12-11 01:33:40,15.08839566,0.000264,53.218,283.1278,106.5786,253.5496,4.111e-05,3.66e-06,0.0,0 STARLINK-5127,1 54010U 22125AY  23345.06505476  .00000366  00000-0  41110-4 0  9998,2 54010  53.2180 283.1278 0002640 106.5786 253.5496 15.08839566 65924,6917.882,95.438,541.573,537.92,0.0
54010.0,STARLINK-5127,PAYLOAD,2023-12-12 01:24:27,15.08840767,0.0002565,53.2178,278.6712,108.1944,251.9327,5.4207e-05,5.74e-06,0.0,0 STARLINK-5127,1 54010U 22125AY  23346.05865484  .00000574  00000-0  54207-4 0  9998,2 54010  53.2178 278.6712 0002565 108.1944 251.9327 15.08840767 66025,6917.878,95.438,541.517,537.969,0.0
54010.0,STARLINK-5127,PAYLOAD,2023-12-13 02:50:38,15.08843788,0.0002344,53.2176,273.9155,88.5603,271.5658,0.00010539,1.39e-05,0.0,0 STARLINK-5127,1 54010U 22125AY  23347.11849609  .00001390  00000-0  10539-3 0  9993,2 54010  53.2176 273.9155 0002344  88.5603 271.5658 15.08843788 66234,6917.869,95.437,541.355,538.112,0.0
54010.0,STARLINK-5127,PAYLOAD,2023-12-14 02:41:25,15.08845835,0.0002729,53.2186,269.4568,74.9547,285.1747,0.00010633,1.404e-05,0.0,0 STARLINK-5127,1 54010U 22125AY  23348.11209577  .00001404  00000-0  10633-3 0  9999,2 54010  53.2186 269.4568 0002729  74.9547 285.1747 15.08845835 66332,6917.863,95.437,541.615,537.84,0.0
54010.0,STARLINK-5127,PAYLOAD,2023-12-15 00:56:48,15.0884889,0.0002403,53.2186,265.2902,87.9052,272.2215,8.2977e-05,1.033e-05,0.0,0 STARLINK-5127,1 54010U 22125AY  23349.03945057  .00001033  00000-0  82977-4 0  9990,2 54010  53.2186 265.2902 0002403  87.9052 272.2215 15.08848890 66524,6917.853,95.437,541.381,538.056,0.0
54010.0,STARLINK-5127,PAYLOAD,2023-12-15 21:36:50,15.08836727,0.0002373,53.2185,261.4266,88.5557,271.5707,-1.3396e-05,-5.02e-06,0.0,0 STARLINK-5127,1 54010U 22125AY  23349.90058251 -.00000502  00000-0 -13396-4 0  9998,2 54010  53.2185 261.4266 0002373  88.5557 271.5707 15.08836727 66600,6917.89,95.438,541.397,538.114,0.0
54010.0,STARLINK-5127,PAYLOAD,2023-12-16 00:47:36,15.08837967,0.0002293,53.2174,260.8319,91.0494,269.0761,-1.5994e-05,-5.43e-06,0.0,0 STARLINK-5127,1 54010U 22125AY  23350.03306135 -.00000543  00000-0 -15994-4 0  9992,2 54010  53.2174 260.8319 0002293  91.0494 269.0761 15.08837967 66676,6917.887,95.438,541.338,538.165,0.0
54010.0,STARLINK-5127,PAYLOAD,2023-12-16 21:27:36,15.08840784,0.0002068,53.2182,256.9657,104.5368,255.5853,0.00010009,1.305e-05,0.0,0 STARLINK-5127,1 54010U 22125AY  23350.89417466  .00001305  00000-0  10009-3 0  9992,2 54010  53.2182 256.9657 0002068 104.5368 255.5853 15.08840784 66758,6917.878,95.438,541.174,538.312,0.0
54010.0,STARLINK-5127,PAYLOAD,2023-12-17 00:38:22,15.0885017,0.0002206,53.2177,256.3704,99.9826,260.1415,8.9105e-05,1.13e-05,0.0,0 STARLINK-5127,1 54010U 22125AY  23351.02665033  .00001130  00000-0  89105-4 0  9993,2 54010  53.2177 256.3704 0002206  99.9826 260.1415 15.08850170 66823,6917.849,95.437,541.24,538.188,0.0
54010.0,STARLINK-5127,PAYLOAD,2023-12-17 21:18:23,15.08844039,0.0002307,53.2183,252.5049,106.878,253.2465,0.00013239,1.82e-05,0.0,0 STARLINK-5127,1 54010U 22125AY  23351.88777412  .00001820  00000-0  13239-3 0  9992,2 54010  53.2183 252.5049 0002307 106.8780 253.2465 15.08844039 66903,6917.868,95.437,541.329,538.137,0.0
54010.0,STARLINK-5127,PAYLOAD,2023-12-18 00:29:09,15.08851771,0.0002333,53.2169,251.9077,106.8781,253.2467,0.0002108,3.069e-05,0.0,0 STARLINK-5127,1 54010U 22125AY  23352.02025056  .00003069  00000-0  21080-3 0  9999,2 54010  53.2169 251.9077 0002333 106.8781 253.2467 15.08851771 66971,6917.844,95.437,541.323,538.095,0.0
54010.0,STARLINK-5127,PAYLOAD,2023-12-18 21:09:11,15.08834085,0.0002541,53.2165,248.045,120.2041,239.9203,-0.00010667,-1.986e-05,0.0,0 STARLINK-5127,1 54010U 22125AY  23352.88137945 -.00001986  00000-0 -10667-3 0  9991,2 54010  53.2165 248.0450 0002541 120.2041 239.9203 15.08834085 67057,6917.898,95.438,541.521,538.006,0.0
54010.0,STARLINK-5127,PAYLOAD,2023-12-20 00:10:44,15.08840014,0.0001799,53.2158,242.9928,97.0925,263.0272,-2.5999e-06,-3.3e-06,0.0,0 STARLINK-5127,1 54010U 22125AY  23354.00746338 -.00000330  00000-0 -25999-5 0  9997,2 54010  53.2158 242.9928 0001799  97.0925 263.0272 15.08840014 67275,6917.88,95.438,540.99,538.501,0.0
54010.0,STARLINK-5127,PAYLOAD,2023-12-20 22:26:08,15.08848123,0.0001687,53.2153,238.8293,86.8522,273.2663,0.00034394,5.191e-05,0.0,0 STARLINK-5127,1 54010U 22125AY  23354.93482227  .00005191  00000-0  34394-3 0  9998,2 54010  53.2153 238.8293 0001687  86.8522 273.2663 15.08848123 67360,6917.856,95.437,540.888,538.554,0.0
54010.0,STARLINK-5127,PAYLOAD,2023-12-21 00:01:31,15.08852188,0.0001716,53.2154,238.5336,91.8678,268.2511,0.00041432,6.314e-05,0.0,0 STARLINK-5127,1 54010U 22125AY  23355.00106140  .00006314  00000-0  41432-3 0  9993,2 54010  53.2154 238.5336 0001716  91.8678 268.2511 15.08852188 67426,6917.843,95.437,540.895,538.521,0.0
54010.0,STARLINK-5127,PAYLOAD,2023-12-21 22:16:55,15.08842122,0.0001692,53.2164,234.3662,110.3495,249.7679,3.8683e-05,3.28e-06,0.0,0 STARLINK-5127,1 54010U 22125AY  23355.92842268  .00000328  00000-0  38683-4 0  9996,2 54010  53.2164 234.3662 0001692 110.3495 249.7679 15.08842122 67516,6917.874,95.437,540.909,538.568,0.0
54010.0,STARLINK-5127,PAYLOAD,2023-12-21 23:52:18,15.08842524,0.0001474,53.2154,234.0759,96.9138,263.2022,7.5166e-05,9.09e-06,0.0,0 STARLINK-5127,1 54010U 22125AY  23355.99466411  .00000909  00000-0  75166-4 0  9997,2 54010  53.2154 234.0759 0001474  96.9138 263.2022 15.08842524 67575,6917.873,95.437,540.757,538.718,0.0
